     2.11           N: GPS NAV DATA                         RINEX VERSION / TYPE
teqc  2019Feb25                         20221121 12:28:35UTCPGM / RUN BY / DATE
OSX ker:10.11.6|Core i5|gcc 4.3 -m64|OSX ker:10.10+|=+      COMMENT
    1.2107D-08  0.0000D+00 -1.1921D-07  0.0000D+00          ION ALPHA
    9.4208D+04  0.0000D+00 -1.9661D+05  0.0000D+00          ION BETA
   -9.313225746155D-10-1.776356839400D-15   503808     1554 DELTA-UTC: A0,A1,T,W
                                                            END OF HEADER
13 09 10 21 23 59 44.0 3.057857975364D-04 2.273736754432D-13 0.000000000000D+00
    1.700000000000D+01-2.153125000000D+01 3.932663811233D-09-2.230438166588D-01
   -1.167878508568D-06 3.955841297284D-03 2.367421984673D-06 5.153638481140D+03
    3.455840000000D+05-1.862645149231D-08-8.721927843647D-01 1.303851604462D-08
    9.941222649541D-01 3.502812500000D+02 1.660609623628D+00-8.072479108300D-09
   -1.978653847446D-10 1.000000000000D+00 1.554000000000D+03 0.000000000000D+00
    2.000000000000D+00 0.000000000000D+00-1.117587089539D-08 1.700000000000D+01
    3.426360000000D+05 4.000000000000D+00
30 09 10 21 23 59 44.0 1.867981627584D-04 3.069544618484D-12 0.000000000000D+00
    3.000000000000D+01-2.728125000000D+01 4.537689012961D-09 1.274883889128D+00
   -1.542270183563D-06 1.192679221276D-02 8.957460522652D-06 5.153660440445D+03
    3.455840000000D+05-1.788139343262D-07 1.116067921029D+00-1.639127731323D-07
    9.533490937650D-01 2.039687500000D+02 1.464486543960D+00-8.072836266034D-09
    5.203788187237D-10 1.000000000000D+00 1.554000000000D+03 0.000000000000D+00
    2.000000000000D+00 0.000000000000D+00-7.916241884232D-09 3.000000000000D+01
    3.426360000000D+05 4.000000000000D+00
